STARLINK-1266
1 15383C 20019Z   21326.16199559 -.00017706  00000-0 -11866-2 0  3265
2 15383  53.0527 348.0130 0001409  58.5206 227.8164 15.06407347    14
